STARLINK-30141
1 57620U 23119U   26061.16668981  .00102402  00000+0  62322-2 0  9991
2 57620  43.0009 122.6814 0002373 256.1920  45.5996 15.09333964  5761
STARLINK-30284
1 57877U 23144P   26061.16668981  .00097570  00000+0  59457-2 0  9997
2 57877  42.9998 289.9168 0001752 261.7124  13.2841 15.09316327  5717
